[
  {
    "OBJECT_NAME": "CYGFM04",
    "OBJECT_ID": "2016-078B",
    "EPOCH": "2025-05-24T13:28:49.828512",
    "MEAN_MOTION": 15.42124022,
    "ECCENTRICITY": 0.0008554,
    "INCLINATION": 34.9362,
    "RA_OF_ASC_NODE": 258.4896,
    "ARG_OF_PERICENTER": 120.9293,
    "MEAN_ANOMALY": 239.2268,
    "EPHEMERIS_TYPE": 0,
    "CLASSIFICATION_TYPE": "U",
    "NORAD_CAT_ID": 41885,
    "ELEMENT_SET_NO": 999,
    "REV_AT_EPOCH": 46864,
    "BSTAR": 0.00026998,
    "MEAN_MOTION_DOT": 0.00011882,
    "MEAN_MOTION_DDOT": 0
  },
  {
    "OBJECT_NAME": "CYGFM02",
    "OBJECT_ID": "2016-078C",
    "EPOCH": "2025-05-24T13:48:35.055936",
    "MEAN_MOTION": 15.42937281,
    "ECCENTRICITY": 0.0010255,
    "INCLINATION": 34.9447,
    "RA_OF_ASC_NODE": 258.7939,
    "ARG_OF_PERICENTER": 114.3311,
    "MEAN_ANOMALY": 245.8481,
    "EPHEMERIS_TYPE": 0,
    "CLASSIFICATION_TYPE": "U",
    "NORAD_CAT_ID": 41886,
    "ELEMENT_SET_NO": 999,
    "REV_AT_EPOCH": 46875,
    "BSTAR": 0.00027052,
    "MEAN_MOTION_DOT": 0.00012244,
    "MEAN_MOTION_DDOT": 0
  },
  {
    "OBJECT_NAME": "CYGFM01",
    "OBJECT_ID": "2016-078D",
    "EPOCH": "2025-05-24T18:22:46.888608",
    "MEAN_MOTION": 15.40622343,
    "ECCENTRICITY": 0.000886,
    "INCLINATION": 34.9444,
    "RA_OF_ASC_NODE": 281.2905,
    "ARG_OF_PERICENTER": 84.8558,
    "MEAN_ANOMALY": 275.3172,
    "EPHEMERIS_TYPE": 0,
    "CLASSIFICATION_TYPE": "U",
    "NORAD_CAT_ID": 41887,
    "ELEMENT_SET_NO": 999,
    "REV_AT_EPOCH": 46859,
    "BSTAR": 0.00027695,
    "MEAN_MOTION_DOT": 0.00011592,
    "MEAN_MOTION_DDOT": 0
  },
  {
    "OBJECT_NAME": "CYGFM08",
    "OBJECT_ID": "2016-078E",
    "EPOCH": "2025-05-24T15:08:51.300384",
    "MEAN_MOTION": 15.4151209,
    "ECCENTRICITY": 0.0010833,
    "INCLINATION": 34.9473,
    "RA_OF_ASC_NODE": 267.1223,
    "ARG_OF_PERICENTER": 108.8528,
    "MEAN_ANOMALY": 251.3367,
    "EPHEMERIS_TYPE": 0,
    "CLASSIFICATION_TYPE": "U",
    "NORAD_CAT_ID": 41888,
    "ELEMENT_SET_NO": 999,
    "REV_AT_EPOCH": 46866,
    "BSTAR": 0.00026879,
    "MEAN_MOTION_DOT": 0.00011596,
    "MEAN_MOTION_DDOT": 0
  },
  {
    "OBJECT_NAME": "CYGFM07",
    "OBJECT_ID": "2016-078G",
    "EPOCH": "2025-05-24T13:56:06.133056",
    "MEAN_MOTION": 15.42067496,
    "ECCENTRICITY": 0.0008963,
    "INCLINATION": 34.9489,
    "RA_OF_ASC_NODE": 257.5643,
    "ARG_OF_PERICENTER": 127.0773,
    "MEAN_ANOMALY": 233.0767,
    "EPHEMERIS_TYPE": 0,
    "CLASSIFICATION_TYPE": "U",
    "NORAD_CAT_ID": 41890,
    "ELEMENT_SET_NO": 999,
    "REV_AT_EPOCH": 46866,
    "BSTAR": 0.00026287,
    "MEAN_MOTION_DOT": 0.00011546,
    "MEAN_MOTION_DDOT": 0
  },
  {
    "OBJECT_NAME": "CYGFM03",
    "OBJECT_ID": "2016-078H",
    "EPOCH": "2025-05-24T14:00:29.245248",
    "MEAN_MOTION": 15.41842342,
    "ECCENTRICITY": 0.000798,
    "INCLINATION": 34.944,
    "RA_OF_ASC_NODE": 259.1325,
    "ARG_OF_PERICENTER": 111.6415,
    "MEAN_ANOMALY": 248.5155,
    "EPHEMERIS_TYPE": 0,
    "CLASSIFICATION_TYPE": "U",
    "NORAD_CAT_ID": 41891,
    "ELEMENT_SET_NO": 999,
    "REV_AT_EPOCH": 46864,
    "BSTAR": 0.00025749,
    "MEAN_MOTION_DOT": 0.0001122,
    "MEAN_MOTION_DDOT": 0
  },
  {
    "OBJECT_NAME": "FENGYUN 3D",
    "OBJECT_ID": "2017-072A",
    "EPOCH": "2025-05-24T21:14:39.461280",
    "MEAN_MOTION": 14.19625608,
    "ECCENTRICITY": 0.0002628,
    "INCLINATION": 98.9614,
    "RA_OF_ASC_NODE": 108.5167,
    "ARG_OF_PERICENTER": 82.411,
    "MEAN_ANOMALY": 277.7364,
    "EPHEMERIS_TYPE": 0,
    "CLASSIFICATION_TYPE": "U",
    "NORAD_CAT_ID": 43010,
    "ELEMENT_SET_NO": 999,
    "REV_AT_EPOCH": 38989,
    "BSTAR": 5.5994e-05,
    "MEAN_MOTION_DOT": 7.3e-07,
    "MEAN_MOTION_DDOT": 0
  },
  {
    "OBJECT_NAME": "NOAA 20 (JPSS-1)",
    "OBJECT_ID": "2017-073A",
    "EPOCH": "2025-05-24T20:08:13.626240",
    "MEAN_MOTION": 14.19539199,
    "ECCENTRICITY": 0.000129,
    "INCLINATION": 98.7413,
    "RA_OF_ASC_NODE": 83.6183,
    "ARG_OF_PERICENTER": 32.2291,
    "MEAN_ANOMALY": 327.8964,
    "EPHEMERIS_TYPE": 0,
    "CLASSIFICATION_TYPE": "U",
    "NORAD_CAT_ID": 43013,
    "ELEMENT_SET_NO": 999,
    "REV_AT_EPOCH": 38937,
    "BSTAR": 4.3554e-05,
    "MEAN_MOTION_DOT": 4.8e-07,
    "MEAN_MOTION_DDOT": 0
  },
  {
    "OBJECT_NAME": "GOES 17",
    "OBJECT_ID": "2018-022A",
    "EPOCH": "2025-05-24T11:54:33.154848",
    "MEAN_MOTION": 1.00270858,
    "ECCENTRICITY": 0.000272,
    "INCLINATION": 0.009,
    "RA_OF_ASC_NODE": 252.8557,
    "ARG_OF_PERICENTER": 210.3726,
    "MEAN_ANOMALY": 213.3411,
    "EPHEMERIS_TYPE": 0,
    "CLASSIFICATION_TYPE": "U",
    "NORAD_CAT_ID": 43226,
    "ELEMENT_SET_NO": 999,
    "REV_AT_EPOCH": 2652,
    "BSTAR": 0,
    "MEAN_MOTION_DOT": -8.3e-07,
    "MEAN_MOTION_DDOT": 0
  },
  {
    "OBJECT_NAME": "FENGYUN 2H",
    "OBJECT_ID": "2018-050A",
    "EPOCH": "2025-05-24T21:27:21.074688",
    "MEAN_MOTION": 1.00268613,
    "ECCENTRICITY": 6.6e-05,
    "INCLINATION": 2.0307,
    "RA_OF_ASC_NODE": 83.6707,
    "ARG_OF_PERICENTER": 120.5892,
    "MEAN_ANOMALY": 79.5468,
    "EPHEMERIS_TYPE": 0,
    "CLASSIFICATION_TYPE": "U",
    "NORAD_CAT_ID": 43491,
    "ELEMENT_SET_NO": 999,
    "REV_AT_EPOCH": 2561,
    "BSTAR": 0,
    "MEAN_MOTION_DOT": -1.19e-06,
    "MEAN_MOTION_DDOT": 0
  },
  {
    "OBJECT_NAME": "METOP-C",
    "OBJECT_ID": "2018-087A",
    "EPOCH": "2025-05-24T19:22:05.163744",
    "MEAN_MOTION": 14.21480507,
    "ECCENTRICITY": 0.0001228,
    "INCLINATION": 98.7162,
    "RA_OF_ASC_NODE": 205.3372,
    "ARG_OF_PERICENTER": 153.5755,
    "MEAN_ANOMALY": 206.5485,
    "EPHEMERIS_TYPE": 0,
    "CLASSIFICATION_TYPE": "U",
    "NORAD_CAT_ID": 43689,
    "ELEMENT_SET_NO": 999,
    "REV_AT_EPOCH": 33965,
    "BSTAR": 6.7588e-05,
    "MEAN_MOTION_DOT": 1.04e-06,
    "MEAN_MOTION_DDOT": 0
  },
  {
    "OBJECT_NAME": "GEO-KOMPSAT-2A",
    "OBJECT_ID": "2018-100A",
    "EPOCH": "2025-05-24T19:55:44.203008",
    "MEAN_MOTION": 1.00271143,
    "ECCENTRICITY": 0.0001666,
    "INCLINATION": 0.0252,
    "RA_OF_ASC_NODE": 70.5868,
    "ARG_OF_PERICENTER": 1.0317,
    "MEAN_ANOMALY": 238.2425,
    "EPHEMERIS_TYPE": 0,
    "CLASSIFICATION_TYPE": "U",
    "NORAD_CAT_ID": 43823,
    "ELEMENT_SET_NO": 999,
    "REV_AT_EPOCH": 2376,
    "BSTAR": 0,
    "MEAN_MOTION_DOT": -3.35e-06,
    "MEAN_MOTION_DDOT": 0
  },
  {
    "OBJECT_NAME": "METEOR-M2 2",
    "OBJECT_ID": "2019-038A",
    "EPOCH": "2025-05-24T21:37:56.783424",
    "MEAN_MOTION": 14.24204172,
    "ECCENTRICITY": 0.0002304,
    "INCLINATION": 98.8737,
    "RA_OF_ASC_NODE": 122.4291,
    "ARG_OF_PERICENTER": 71.2532,
    "MEAN_ANOMALY": 288.8896,
    "EPHEMERIS_TYPE": 0,
    "CLASSIFICATION_TYPE": "U",
    "NORAD_CAT_ID": 44387,
    "ELEMENT_SET_NO": 999,
    "REV_AT_EPOCH": 30602,
    "BSTAR": 5.5961e-05,
    "MEAN_MOTION_DOT": 8.3e-07,
    "MEAN_MOTION_DDOT": 0
  },
  {
    "OBJECT_NAME": "ARKTIKA-M 1",
    "OBJECT_ID": "2021-016A",
    "EPOCH": "2025-05-23T04:57:29.133216",
    "MEAN_MOTION": 2.00599366,
    "ECCENTRICITY": 0.7097463,
    "INCLINATION": 63.1475,
    "RA_OF_ASC_NODE": 110.8768,
    "ARG_OF_PERICENTER": 268.6048,
    "MEAN_ANOMALY": 16.6773,
    "EPHEMERIS_TYPE": 0,
    "CLASSIFICATION_TYPE": "U",
    "NORAD_CAT_ID": 47719,
    "ELEMENT_SET_NO": 999,
    "REV_AT_EPOCH": 3096,
    "BSTAR": 0,
    "MEAN_MOTION_DOT": 1.06e-06,
    "MEAN_MOTION_DDOT": 0
  }
]