CYGFM04                 
1 41885U 16078B   25144.56168783  .00011882  00000+0  26998-3 0  9994
2 41885  34.9362 258.4896 0008554 120.9293 239.2268 15.42124022468648
CYGFM02                 
1 41886U 16078C   25144.57540574  .00012244  00000+0  27052-3 0  9993
2 41886  34.9447 258.7939 0010255 114.3311 245.8481 15.42937281468754
CYGFM01                 
1 41887U 16078D   25144.76582047  .00011592  00000+0  27695-3 0  9994
2 41887  34.9444 281.2905 0008860  84.8558 275.3172 15.40622343468594
CYGFM08                 
1 41888U 16078E   25144.63114931  .00011596  00000+0  26879-3 0  9991
2 41888  34.9473 267.1223 0010833 108.8528 251.3367 15.41512090468666
CYGFM07                 
1 41890U 16078G   25144.58062654  .00011546  00000+0  26287-3 0  9990
2 41890  34.9489 257.5643 0008963 127.0773 233.0767 15.42067496468668
CYGFM03                 
1 41891U 16078H   25144.58367182  .00011220  00000+0  25749-3 0  9996
2 41891  34.9440 259.1325 0007980 111.6415 248.5155 15.41842342468641
FENGYUN 3D              
1 43010U 17072A   25144.88517895  .00000073  00000+0  55994-4 0  9997
2 43010  98.9614 108.5167 0002628  82.4110 277.7364 14.19625608389894
NOAA 20 (JPSS-1)        
1 43013U 17073A   25144.83904660  .00000048  00000+0  43554-4 0  9997
2 43013  98.7413  83.6183 0001290  32.2291 327.8964 14.19539199389375
GOES 17                 
1 43226U 18022A   25144.49621707 -.00000083  00000+0  00000+0 0  9992
2 43226   0.0090 252.8557 0002720 210.3726 213.3411  1.00270858 26525
FENGYUN 2H              
1 43491U 18050A   25144.89399392 -.00000119  00000+0  00000+0 0  9993
2 43491   2.0307  83.6707 0000660 120.5892  79.5468  1.00268613 25615
METOP-C                 
1 43689U 18087A   25144.80700421  .00000104  00000+0  67588-4 0  9994
2 43689  98.7162 205.3372 0001228 153.5755 206.5485 14.21480507339659
GEO-KOMPSAT-2A          
1 43823U 18100A   25144.83037272 -.00000335  00000+0  00000+0 0  9998
2 43823   0.0252  70.5868 0001666   1.0317 238.2425  1.00271143 23769
METEOR-M2 2             
1 44387U 19038A   25144.90135166  .00000083  00000+0  55961-4 0  9994
2 44387  98.8737 122.4291 0002304  71.2532 288.8896 14.24204172306027
ARKTIKA-M 1             
1 47719U 21016A   25143.20658719  .00000106  00000+0  00000+0 0  9996
2 47719  63.1475 110.8768 7097463 268.6048  16.6773  2.00599366 30965
